{"type": "FeatureCollection", "features": [{"type": "Feature", "properties": {"norad_id": 50032, "name": "COSMOS 1408 DEB", "group": "cosmos-1408-debris", "lat": 25.714403145843622, "lon": 67.50780189308662, "alt_km": 438.08008637248804, "timestamp": "2025-12-07T11:27:50.272672+00:00", "meta": {"OBJECT_NAME": "COSMOS 1408 DEB", "OBJECT_ID": "1982-092RU", "EPOCH": "2025-12-06T16:42:22.156992", "MEAN_MOTION": 15.45602595, "ECCENTRICITY": 0.00147713, "INCLINATION": 82.5648, "RA_OF_ASC_NODE": 64.7028, "ARG_OF_PERICENTER": 232.1083, "MEAN_ANOMALY": 127.8831, "EPHEMERIS_TYPE": 0, "CLASSIFICATION_TYPE": "U", "NORAD_CAT_ID": 50032, "ELEMENT_SET_NO": 999, "REV_AT_EPOCH": 22510, "BSTAR": 0.00017656769, "MEAN_MOTION_DOT": 8.568e-05, "MEAN_MOTION_DDOT": 0}, "tle": {"line1": "1 50032U 82092RU  25340.69608978  .00008568  00000+0  17657-3 0  9993", "line2": "2 50032  82.5648  64.7028 0014771 232.1083 127.8831 15.45602595225103"}}, "geometry": {"type": "Point", "coordinates": [67.50780189308662, 25.714403145843622]}}, {"type": "Feature", "properties": {"norad_id": 50058, "name": "COSMOS 1408 DEB", "group": "cosmos-1408-debris", "lat": -62.63942832235862, "lon": -90.6339573207956, "alt_km": 390.8459119945146, "timestamp": "2025-12-07T11:27:50.272699+00:00", "meta": {"OBJECT_NAME": "COSMOS 1408 DEB", "OBJECT_ID": "1982-092SW", "EPOCH": "2025-12-06T17:31:54.040512", "MEAN_MOTION": 15.6357903, "ECCENTRICITY": 0.00163043, "INCLINATION": 82.6135, "RA_OF_ASC_NODE": 75.6285, "ARG_OF_PERICENTER": 120.1314, "MEAN_ANOMALY": 240.1563, "EPHEMERIS_TYPE": 0, "CLASSIFICATION_TYPE": "U", "NORAD_CAT_ID": 50058, "ELEMENT_SET_NO": 999, "REV_AT_EPOCH": 22710, "BSTAR": 0.00048985664, "MEAN_MOTION_DOT": 0.00045915, "MEAN_MOTION_DDOT": 0}, "tle": {"line1": "1 50058U 82092SW  25340.73048658  .00045915  00000+0  48986-3 0  9995", "line2": "2 50058  82.6135  75.6285 0016304 120.1314 240.1563 15.63579030227106"}}, "geometry": {"type": "Point", "coordinates": [-90.6339573207956, -62.63942832235862]}}, {"type": "Feature", "properties": {"norad_id": 50404, "name": "COSMOS 1408 DEB", "group": "cosmos-1408-debris", "lat": -51.184397374983774, "lon": 50.22126686347607, "alt_km": 418.414891446163, "timestamp": "2025-12-07T11:27:50.272714+00:00", "meta": {"OBJECT_NAME": "COSMOS 1408 DEB", "OBJECT_ID": "1982-092ADS", "EPOCH": "2025-12-06T16:58:30.659520", "MEAN_MOTION": 15.1257011, "ECCENTRICITY": 0.01743283, "INCLINATION": 82.2044, "RA_OF_ASC_NODE": 221.2034, "ARG_OF_PERICENTER": 219.7474, "MEAN_ANOMALY": 139.0879, "EPHEMERIS_TYPE": 0, "CLASSIFICATION_TYPE": "U", "NORAD_CAT_ID": 50404, "ELEMENT_SET_NO": 999, "REV_AT_EPOCH": 21102, "BSTAR": 0.0044212021, "MEAN_MOTION_DOT": 0.00113453, "MEAN_MOTION_DDOT": 0}, "tle": {"line1": "1 50404U 82092ADS 25340.70729930  .00113453  00000+0  44212-2 0  9996", "line2": "2 50404  82.2044 221.2034 0174328 219.7474 139.0879 15.12570110211024"}}, "geometry": {"type": "Point", "coordinates": [50.22126686347607, -51.184397374983774]}}, {"type": "Feature", "properties": {"norad_id": 50621, "name": "COSMOS 1408 DEB", "group": "cosmos-1408-debris", "lat": 39.11918773493373, "lon": 85.74846398968786, "alt_km": 408.6989033339005, "timestamp": "2025-12-07T11:27:50.272727+00:00", "meta": {"OBJECT_NAME": "COSMOS 1408 DEB", "OBJECT_ID": "1982-092ALR", "EPOCH": "2025-12-06T05:58:21.140256", "MEAN_MOTION": 15.56160395, "ECCENTRICITY": 0.00287722, "INCLINATION": 82.5723, "RA_OF_ASC_NODE": 80.9361, "ARG_OF_PERICENTER": 176.4358, "MEAN_ANOMALY": 183.7108, "EPHEMERIS_TYPE": 0, "CLASSIFICATION_TYPE": "U", "NORAD_CAT_ID": 50621, "ELEMENT_SET_NO": 999, "REV_AT_EPOCH": 22149, "BSTAR": 0.00059401028, "MEAN_MOTION_DOT": 0.00042512, "MEAN_MOTION_DDOT": 0}, "tle": {"line1": "1 50621U 82092ALR 25340.24885579  .00042512  00000+0  59401-3 0  9992", "line2": "2 50621  82.5723  80.9361 0028772 176.4358 183.7108 15.56160395221497"}}, "geometry": {"type": "Point", "coordinates": [85.74846398968786, 39.11918773493373]}}]}